{
    "links": {
        "self": "http://www.neowsapp.com/rest/v1/neo/3726445?api_key=iIulBulltgU6a56xZRHN4H3l9WmuAYTsLGpBGhQ2"
    },
    "id": "3726445",
    "neo_reference_id": "3726445",
    "name": "(2015 QK)",
    "designation": "2015 QK",
    "nasa_jpl_url": "http://ssd.jpl.nasa.gov/sbdb.cgi?sstr=3726445",
    "absolute_magnitude_h": 26.3,
    "estimated_diameter": {
        "kilometers": {
            "estimated_diameter_min": 0.0146067964,
            "estimated_diameter_max": 0.0326617897
        },
        "meters": {
            "estimated_diameter_min": 14.6067964271,
            "estimated_diameter_max": 32.6617897446
        },
        "miles": {
            "estimated_diameter_min": 0.0090762397,
            "estimated_diameter_max": 0.020295089
        },
        "feet": {
            "estimated_diameter_min": 47.92256199,
            "estimated_diameter_max": 107.1581062656
        }
    },
    "is_potentially_hazardous_asteroid": false,
    "close_approach_data": [
        {
            "close_approach_date": "2015-08-19",
            "close_approach_date_full": "2015-Aug-19 02:55",
            "epoch_date_close_approach": 1439952900000,
            "relative_velocity": {
                "kilometers_per_second": "8.3464470024",
                "kilometers_per_hour": "30047.209208754",
                "miles_per_hour": "18670.1672997394"
            },
            "miss_distance": {
                "astronomical": "0.0120117042",
                "lunar": "4.6725529338",
                "kilometers": "1796925.363390054",
                "miles": "1116557.6453445852"
            },
            "orbiting_body": "Earth"
        }
    ],
    "orbital_data": {
        "orbit_id": "9",
        "orbit_determination_date": "2017-04-06 08:32:21",
        "first_observation_date": "2015-08-19",
        "last_observation_date": "2015-08-21",
        "data_arc_in_days": 2,
        "observations_used": 83,
        "orbit_uncertainty": "7",
        "minimum_orbit_intersection": ".0147867",
        "jupiter_tisserand_invariant": "3.217",
        "epoch_osculation": "2459000.5",
        "eccentricity": ".5855531268805079",
        "semi_major_axis": "2.472728980879723",
        "inclination": "5.588164346938181",
        "ascending_node_longitude": "325.0658241420692",
        "orbital_period": "1420.244791319121",
        "perihelion_distance": "1.02481479419755",
        "perihelion_argument": "5.999448828239736",
        "aphelion_distance": "3.920643167561897",
        "perihelion_time": "2458676.744162372018",
        "mean_anomaly": "82.06479774364826",
        "mean_motion": ".253477430229216",
        "equinox": "J2000",
        "orbit_class": {
            "orbit_class_type": "AMO",
            "orbit_class_description": "Near-Earth asteroid orbits similar to that of 1221 Amor",
            "orbit_class_range": "1.017 AU < q (perihelion) < 1.3 AU"
        }
    },
    "is_sentry_object": false
}